OBJECT_NAME,OBJECT_ID,EPOCH,MEAN_MOTION,ECCENTRICITY,INCLINATION,RA_OF_ASC_NODE,ARG_OF_PERICENTER,MEAN_ANOMALY,EPHEMERIS_TYPE,CLASSIFICATION_TYPE,NORAD_CAT_ID,ELEMENT_SET_NO,REV_AT_EPOCH,BSTAR,MEAN_MOTION_DOT,MEAN_MOTION_DDOT
KUZGTU 1 (RS47S),2023-091AV,2026-06-30T21:34:50.013408,15.30172773,.00115582,97.5060,246.5207,54.9846,305.2477,0,U,57217,999,16647,.48013737E-3,.13978E-3,0
SONATE-2,2024-043Q,2026-06-30T20:56:07.655712,15.59751983,.00071945,97.5541,333.1180,151.0816,209.0840,0,U,59112,999,13002,.57663599E-3,.46267E-3,0
MESAT1,2024-125G,2026-06-30T02:17:33.188928,15.64639845,.00106565,97.2269,38.8841,159.6539,200.5147,0,U,60209,999,11158,.57394663E-3,.55795E-3,0
OOV-CUBE (TUBSAT-30),2024-128F,2026-06-30T13:30:16.621632,15.02821133,.0042979,61.9924,178.9308,136.7327,223.7153,0,U,60240,999,10812,.14863728E-3,.1824E-4,0
COLIBRI-S (RS67S),2024-199M,2026-06-30T21:29:15.228096,15.48286323,.00070724,97.2972,55.8783,215.2017,144.8767,0,U,61746,999,13953,.47647875E-3,.25125E-3,0
HORS 3 (RS81S),2024-199U,2026-06-30T22:06:36.874368,15.55926460,.00050576,97.2956,58.0431,205.5783,154.5222,0,U,61753,999,13969,.61217974E-3,.42538E-3,0
HORS 4 (RS82S),2024-199V,2026-06-30T21:40:32.096928,15.60992468,.00051132,97.2901,59.3178,192.3921,167.7212,0,U,61754,999,13978,.7489007E-3,.63126E-3,0
SIT-2086,2024-199AF,2026-06-30T21:59:20.034240,15.54026509,.00064043,97.2912,58.4671,190.1808,169.9317,0,U,61764,999,13656,.61987204E-3,.40185E-3,0
HYPERVIEW 1G (RS66S),2024-199AP,2026-06-30T21:20:38.831712,15.79920999,.00069419,97.2834,62.3384,176.9276,183.2036,0,U,61772,999,13683,.11428706E-2,.215594E-2,0
ALTAIR (RS65S),2024-199AW,2026-06-30T21:54:27.934848,15.37286333,.00108507,97.3009,51.1743,253.3903,106.6150,0,U,61779,999,13922,.33398079E-3,.12147E-3,0
ASRTU-1 (AO-123),2024-199AY,2026-06-30T21:54:42.469920,15.35868219,.00119264,97.2981,50.4605,257.3901,102.6010,0,U,61781,999,13603,.23659863E-3,.8196E-4,0
SAMSAT-IONOSPHERE (RS75S),2024-199BB,2026-06-30T22:20:20.597280,15.58838858,.00072673,97.2923,58.1515,210.9838,149.0991,0,U,61784,999,13970,.70628616E-3,.5483E-3,0
RTU MIREA 1 (RS51S),2024-199BC,2026-06-30T22:09:50.015520,15.62613956,.0007307,97.2907,59.0497,203.3873,156.7054,0,U,61785,999,13661,.86889906E-3,.78174E-3,0
TEVEL2-4,2025-052D,2026-06-29T23:03:25.420896,15.35054118,.00047321,97.3893,77.3762,79.7406,280.4371,0,U,63213,999,7207,.57064181E-3,.19361E-3,0
TEVEL2-5,2025-052E,2026-06-30T05:50:33.814752,15.34882414,.00047019,97.3890,77.6036,80.7172,279.4603,0,U,63214,999,7211,.49541717E-3,.16701E-3,0
TEVEL2-6,2025-052F,2026-06-30T23:21:25.873632,15.34878208,.00044841,97.3895,78.3191,80.3249,279.8501,0,U,63215,999,7222,.65160601E-3,.22002E-3,0
TEVEL2-1,2025-052H,2026-06-29T23:07:36.552864,15.34288206,.00049749,97.3866,76.9168,89.0963,271.0850,0,U,63217,999,7205,.5556305E-3,.18395E-3,0
TEVEL2-3,2025-052J,2026-06-29T22:59:12.512544,15.34347673,.00048285,97.3871,76.9346,90.2105,269.9691,0,U,63218,999,7205,.55721892E-3,.18482E-3,0
TEVEL2-2,2025-052K,2026-06-28T15:49:37.369056,15.34253315,.00050154,97.3871,75.6148,92.1173,268.0645,0,U,63219,999,7185,.51245467E-3,.16937E-3,0
OTP-2,2025-052AB,2026-06-30T22:46:51.069216,15.24168530,.00081647,97.3857,74.1742,109.0770,251.1352,0,U,63235,999,7196,.37745397E-3,.9129E-4,0
TEVEL2-9,2025-052AD,2026-06-30T05:15:32.433696,15.32290550,.00083087,97.3929,76.5220,96.6090,263.6098,0,U,63237,999,7202,.47181125E-3,.14659E-3,0
TEVEL2-7,2025-052AE,2026-06-30T15:42:26.875008,15.31999023,.0008383,97.3931,76.8668,95.4653,264.7545,0,U,63238,999,7208,.53276678E-3,.16416E-3,0
TEVEL2-8,2025-052AF,2026-06-30T23:44:48.020352,15.31998432,.00084385,97.3930,77.1776,95.2940,264.9265,0,U,63239,999,7213,.64442723E-3,.19882E-3,0
INNOSAT 16 (RS92S7),2025-155C,2026-06-30T21:47:18.659904,15.25601214,.00119753,97.4571,148.9933,131.1605,229.0669,0,U,64878,999,8276,.26541783E-3,.6683E-4,0
GEOSCAN 6 (RS92S6),2025-155D,2026-06-30T21:55:25.906656,15.30405821,.00097177,97.4562,150.5209,121.7278,238.4911,0,U,64879,999,8286,.43025065E-3,.12599E-3,0
GEOSCAN 1 (RS92S1),2025-155E,2026-06-30T21:51:06.320448,15.31030647,.00096543,97.4559,150.6780,121.7352,238.4831,0,U,64880,999,8287,.43275584E-3,.12922E-3,0
239ALFEROV (RS61S),2025-155F,2026-06-30T22:12:37.456128,15.33309536,.00093333,97.4559,151.3013,120.4426,239.7740,0,U,64881,999,8291,.55899442E-3,.17959E-3,0
GEOSCAN 2 (RS92S2),2025-155Q,2026-06-30T21:38:33.283104,15.31290271,.00091401,97.4558,150.8270,111.0408,249.1811,0,U,64890,999,8288,.41238695E-3,.12407E-3,0
GEOSCAN 5 (RS92S5),2025-155R,2026-06-30T21:52:44.529600,15.33622684,.00082459,97.4550,151.4301,123.9097,236.2931,0,U,64891,999,8292,.52609923E-3,.17058E-3,0
GEOSCAN 4 (RS92S4),2025-155S,2026-06-30T23:01:54.270624,15.33785445,.0008274,97.4554,151.5310,123.5640,236.6393,0,U,64892,999,8293,.5223083E-3,.17022E-3,0
