KUZGTU 1 (RS47S)        
1 57217U 23091AV  26181.89918997  .00013978  00000+0  48014-3 0  9992
2 57217  97.5060 246.5207 0011558  54.9846 305.2477 15.30172773166471
SONATE-2                
1 59112U 24043Q   26181.87231083  .00046267  00000+0  57664-3 0  9996
2 59112  97.5541 333.1180 0007194 151.0816 209.0840 15.59751983130025
MESAT1                  
1 60209U 24125G   26181.09552302  .00055795  00000+0  57395-3 0  9997
2 60209  97.2269  38.8841 0010656 159.6539 200.5147 15.64639845111588
OOV-CUBE (TUBSAT-30)    
1 60240U 24128F   26181.56269238  .00001824  00000+0  14864-3 0  9998
2 60240  61.9924 178.9308 0042979 136.7327 223.7153 15.02821133108122
COLIBRI-S (RS67S)       
1 61746U 24199M   26181.89531514  .00025125  00000+0  47648-3 0  9999
2 61746  97.2972  55.8783 0007072 215.2017 144.8767 15.48286323139532
HORS 3 (RS81S)          
1 61753U 24199U   26181.92126012  .00042538  00000+0  61218-3 0  9990
2 61753  97.2956  58.0431 0005057 205.5783 154.5222 15.55926460139692
HORS 4 (RS82S)          
1 61754U 24199V   26181.90314927  .00063126  00000+0  74890-3 0  9999
2 61754  97.2901  59.3178 0005113 192.3921 167.7212 15.60992468139787
SIT-2086                
1 61764U 24199AF  26181.91620410  .00040185  00000+0  61987-3 0  9991
2 61764  97.2912  58.4671 0006404 190.1808 169.9317 15.54026509136562
HYPERVIEW 1G (RS66S)    
1 61772U 24199AP  26181.88933833  .00215594  00000+0  11429-2 0  9995
2 61772  97.2834  62.3384 0006941 176.9276 183.2036 15.79920999136836
ALTAIR (RS65S)          
1 61779U 24199AW  26181.91282332  .00012147  00000+0  33398-3 0  9996
2 61779  97.3009  51.1743 0010850 253.3903 106.6150 15.37286333139227
ASRTU-1 (AO-123)        
1 61781U 24199AY  26181.91299155  .00008196  00000+0  23660-3 0  9990
2 61781  97.2981  50.4605 0011926 257.3901 102.6010 15.35868219136038
SAMSAT-IONOSPHERE (RS7*)
1 61784U 24199BB  26181.93079395  .00054830  00000+0  70629-3 0  9990
2 61784  97.2923  58.1515 0007267 210.9838 149.0991 15.58838858139700
RTU MIREA 1 (RS51S)     
1 61785U 24199BC  26181.92349555  .00078174  00000+0  86890-3 0  9992
2 61785  97.2907  59.0497 0007307 203.3873 156.7054 15.62613956136619
TEVEL2-4                
1 63213U 25052D   26180.96071089  .00019361  00000+0  57064-3 0  9990
2 63213  97.3893  77.3762 0004732  79.7406 280.4371 15.35054118 72071
TEVEL2-5                
1 63214U 25052E   26181.24344693  .00016701  00000+0  49542-3 0  9994
2 63214  97.3890  77.6036 0004701  80.7172 279.4603 15.34882414 72112
TEVEL2-6                
1 63215U 25052F   26181.97321613  .00022002  00000+0  65161-3 0  9998
2 63215  97.3895  78.3191 0004484  80.3249 279.8501 15.34878208 72226
TEVEL2-1                
1 63217U 25052H   26180.96361751  .00018395  00000+0  55563-3 0  9990
2 63217  97.3866  76.9168 0004974  89.0963 271.0850 15.34288206 72052
TEVEL2-3                
1 63218U 25052J   26180.95778371  .00018482  00000+0  55722-3 0  9994
2 63218  97.3871  76.9346 0004828  90.2105 269.9691 15.34347673 72050
TEVEL2-2                
1 63219U 25052K   26179.65946029  .00016937  00000+0  51245-3 0  9996
2 63219  97.3871  75.6148 0005015  92.1173 268.0645 15.34253315 71857
OTP-2                   
1 63235U 25052AB  26181.94920219  .00009129  00000+0  37745-3 0  9996
2 63235  97.3857  74.1742 0008164 109.0770 251.1352 15.24168530 71965
TEVEL2-9                
1 63237U 25052AD  26181.21912539  .00014659  00000+0  47181-3 0  9993
2 63237  97.3929  76.5220 0008308  96.6090 263.6098 15.32290550 72020
TEVEL2-7                
1 63238U 25052AE  26181.65447772  .00016416  00000+0  53277-3 0  9990
2 63238  97.3931  76.8668 0008383  95.4653 264.7545 15.31999023 72083
TEVEL2-8                
1 63239U 25052AF  26181.98944468  .00019882  00000+0  64443-3 0  9998
2 63239  97.3930  77.1776 0008438  95.2940 264.9265 15.31998432 72135
INNOSAT 16 (RS92S7)     
1 64878U 25155C   26181.90785486  .00006683  00000+0  26542-3 0  9990
2 64878  97.4571 148.9933 0011975 131.1605 229.0669 15.25601214 82769
GEOSCAN 6 (RS92S6)      
1 64879U 25155D   26181.91349429  .00012599  00000+0  43025-3 0  9993
2 64879  97.4562 150.5209 0009717 121.7278 238.4911 15.30405821 82864
GEOSCAN 1 (RS92S1)      
1 64880U 25155E   26181.91048982  .00012922  00000+0  43276-3 0  9993
2 64880  97.4559 150.6780 0009654 121.7352 238.4831 15.31030647 82873
239ALFEROV (RS61S)      
1 64881U 25155F   26181.92543352  .00017959  00000+0  55899-3 0  9995
2 64881  97.4559 151.3013 0009333 120.4426 239.7740 15.33309536 82919
GEOSCAN 2 (RS92S2)      
1 64890U 25155Q   26181.90177411  .00012407  00000+0  41239-3 0  9998
2 64890  97.4558 150.8270 0009140 111.0408 249.1811 15.31290271 82882
GEOSCAN 5 (RS92S5)      
1 64891U 25155R   26181.91162650  .00017058  00000+0  52610-3 0  9991
2 64891  97.4550 151.4301 0008245 123.9097 236.2931 15.33622684 82922
GEOSCAN 4 (RS92S4)      
1 64892U 25155S   26181.95965591  .00017022  00000+0  52231-3 0  9991
2 64892  97.4554 151.5310 0008274 123.5640 236.6393 15.33785445 82932
